[Satellite]
VERSION=1.1
NAME=STARLINK-1241
NICKNAME=STARLINK-1241
TLE1=1 45195U 20012T   20078.25001157  .00477043  00000-0  13292-1 0  9990
TLE2=2 45195  52.9998 125.3108 0001741  70.4251 229.0987 15.34307643  4951
STATUS=0
